CCSDS_OMM_VERS = 2.0
CREATION_DATE  = 
ORIGINATOR     = 

OBJECT_NAME    = STARLINK-37018
OBJECT_ID      = 2026-044C
CENTER_NAME    = EARTH
REF_FRAME      = TEME
TIME_SYSTEM    = UTC
MEAN_ELEMENT_THEORY = SGP/SGP4

EPOCH          = 2026-03-12T16:00:01.999584
MEAN_MOTION    = 16.06830037
ECCENTRICITY   = .0000923
INCLINATION    = 97.2834
RA_OF_ASC_NODE = 31.7243
ARG_OF_PERICENTER = 104.8126
MEAN_ANOMALY   = 259.9446

EPHEMERIS_TYPE = 0
CLASSIFICATION_TYPE = U
NORAD_CAT_ID   = 68103
ELEMENT_SET_NO = 999
REV_AT_EPOCH   = 183
BSTAR          = -.19653E-2
MEAN_MOTION_DOT = -.1480412E-1
MEAN_MOTION_DDOT = .73487E-3

CCSDS_OMM_VERS = 2.0
CREATION_DATE  = 
ORIGINATOR     = 

OBJECT_NAME    = STARLINK-37041
OBJECT_ID      = 2026-044D
CENTER_NAME    = EARTH
REF_FRAME      = TEME
TIME_SYSTEM    = UTC
MEAN_ELEMENT_THEORY = SGP/SGP4

EPOCH          = 2026-03-12T16:00:01.999584
MEAN_MOTION    = 16.07086695
ECCENTRICITY   = .0000945
INCLINATION    = 97.2835
RA_OF_ASC_NODE = 31.7250
ARG_OF_PERICENTER = 106.9941
MEAN_ANOMALY   = 259.6052

EPHEMERIS_TYPE = 0
CLASSIFICATION_TYPE = U
NORAD_CAT_ID   = 68104
ELEMENT_SET_NO = 999
REV_AT_EPOCH   = 183
BSTAR          = -.193E-2
MEAN_MOTION_DOT = -.1477147E-1
MEAN_MOTION_DDOT = .73423E-3

CCSDS_OMM_VERS = 2.0
CREATION_DATE  = 
ORIGINATOR     = 

OBJECT_NAME    = STARLINK-37021
OBJECT_ID      = 2026-044E
CENTER_NAME    = EARTH
REF_FRAME      = TEME
TIME_SYSTEM    = UTC
MEAN_ELEMENT_THEORY = SGP/SGP4

EPOCH          = 2026-03-12T16:00:01.999584
MEAN_MOTION    = 16.07180297
ECCENTRICITY   = .0000951
INCLINATION    = 97.2833
RA_OF_ASC_NODE = 31.7254
ARG_OF_PERICENTER = 110.2622
MEAN_ANOMALY   = 257.1364

EPHEMERIS_TYPE = 0
CLASSIFICATION_TYPE = U
NORAD_CAT_ID   = 68105
ELEMENT_SET_NO = 999
REV_AT_EPOCH   = 183
BSTAR          = -.19047E-2
MEAN_MOTION_DOT = -.1466419E-1
MEAN_MOTION_DDOT = .72518E-3

CCSDS_OMM_VERS = 2.0
CREATION_DATE  = 
ORIGINATOR     = 

OBJECT_NAME    = STARLINK-37024
OBJECT_ID      = 2026-044F
CENTER_NAME    = EARTH
REF_FRAME      = TEME
TIME_SYSTEM    = UTC
MEAN_ELEMENT_THEORY = SGP/SGP4

EPOCH          = 2026-03-12T16:00:01.999584
MEAN_MOTION    = 16.07303443
ECCENTRICITY   = .0000916
INCLINATION    = 97.2833
RA_OF_ASC_NODE = 31.7255
ARG_OF_PERICENTER = 105.6699
MEAN_ANOMALY   = 262.6119

EPHEMERIS_TYPE = 0
CLASSIFICATION_TYPE = U
NORAD_CAT_ID   = 68106
ELEMENT_SET_NO = 999
REV_AT_EPOCH   = 183
BSTAR          = -.18934E-2
MEAN_MOTION_DOT = -.1468843E-1
MEAN_MOTION_DDOT = .72855E-3

CCSDS_OMM_VERS = 2.0
CREATION_DATE  = 
ORIGINATOR     = 

OBJECT_NAME    = STARLINK-37005
OBJECT_ID      = 2026-044G
CENTER_NAME    = EARTH
REF_FRAME      = TEME
TIME_SYSTEM    = UTC
MEAN_ELEMENT_THEORY = SGP/SGP4

EPOCH          = 2026-03-12T16:00:01.999584
MEAN_MOTION    = 16.06951254
ECCENTRICITY   = .0001351
INCLINATION    = 97.2833
RA_OF_ASC_NODE = 31.7242
ARG_OF_PERICENTER = 123.8255
MEAN_ANOMALY   = 241.8500

EPHEMERIS_TYPE = 0
CLASSIFICATION_TYPE = U
NORAD_CAT_ID   = 68107
ELEMENT_SET_NO = 999
REV_AT_EPOCH   = 183
BSTAR          = -.19386E-2
MEAN_MOTION_DOT = -.1471438E-1
MEAN_MOTION_DDOT = .7277E-3

CCSDS_OMM_VERS = 2.0
CREATION_DATE  = 
ORIGINATOR     = 

OBJECT_NAME    = STARLINK-37017
OBJECT_ID      = 2026-044H
CENTER_NAME    = EARTH
REF_FRAME      = TEME
TIME_SYSTEM    = UTC
MEAN_ELEMENT_THEORY = SGP/SGP4

EPOCH          = 2026-03-12T16:00:01.999584
MEAN_MOTION    = 16.07449998
ECCENTRICITY   = .0000911
INCLINATION    = 97.2833
RA_OF_ASC_NODE = 31.7261
ARG_OF_PERICENTER = 99.9111
MEAN_ANOMALY   = 269.3629

EPHEMERIS_TYPE = 0
CLASSIFICATION_TYPE = U
NORAD_CAT_ID   = 68108
ELEMENT_SET_NO = 999
REV_AT_EPOCH   = 183
BSTAR          = -.18784E-2
MEAN_MOTION_DOT = -.1470575E-1
MEAN_MOTION_DDOT = .73152E-3

CCSDS_OMM_VERS = 2.0
CREATION_DATE  = 
ORIGINATOR     = 

OBJECT_NAME    = STARLINK-36833
OBJECT_ID      = 2026-044J
CENTER_NAME    = EARTH
REF_FRAME      = TEME
TIME_SYSTEM    = UTC
MEAN_ELEMENT_THEORY = SGP/SGP4

EPOCH          = 2026-03-12T16:00:01.999584
MEAN_MOTION    = 16.07696257
ECCENTRICITY   = .0001531
INCLINATION    = 97.2829
RA_OF_ASC_NODE = 31.7269
ARG_OF_PERICENTER = 120.6063
MEAN_ANOMALY   = 250.5008

EPHEMERIS_TYPE = 0
CLASSIFICATION_TYPE = U
NORAD_CAT_ID   = 68109
ELEMENT_SET_NO = 999
REV_AT_EPOCH   = 187
BSTAR          = -.18293E-2
MEAN_MOTION_DOT = -.1454692E-1
MEAN_MOTION_DDOT = .7191E-3

CCSDS_OMM_VERS = 2.0
CREATION_DATE  = 
ORIGINATOR     = 

OBJECT_NAME    = STARLINK-36830
OBJECT_ID      = 2026-044K
CENTER_NAME    = EARTH
REF_FRAME      = TEME
TIME_SYSTEM    = UTC
MEAN_ELEMENT_THEORY = SGP/SGP4

EPOCH          = 2026-03-12T16:00:01.999584
MEAN_MOTION    = 16.07590529
ECCENTRICITY   = .0000934
INCLINATION    = 97.2829
RA_OF_ASC_NODE = 31.7265
ARG_OF_PERICENTER = 107.9350
MEAN_ANOMALY   = 262.3495

EPHEMERIS_TYPE = 0
CLASSIFICATION_TYPE = U
NORAD_CAT_ID   = 68110
ELEMENT_SET_NO = 999
REV_AT_EPOCH   = 187
BSTAR          = -.18476E-2
MEAN_MOTION_DOT = -.1459361E-1
MEAN_MOTION_DDOT = .72244E-3

CCSDS_OMM_VERS = 2.0
CREATION_DATE  = 
ORIGINATOR     = 

OBJECT_NAME    = STARLINK-36791
OBJECT_ID      = 2026-044L
CENTER_NAME    = EARTH
REF_FRAME      = TEME
TIME_SYSTEM    = UTC
MEAN_ELEMENT_THEORY = SGP/SGP4

EPOCH          = 2026-03-12T16:00:01.999584
MEAN_MOTION    = 16.07837496
ECCENTRICITY   = .0001043
INCLINATION    = 97.2831
RA_OF_ASC_NODE = 31.7274
ARG_OF_PERICENTER = 107.3762
MEAN_ANOMALY   = 264.6848

EPHEMERIS_TYPE = 0
CLASSIFICATION_TYPE = U
NORAD_CAT_ID   = 68111
ELEMENT_SET_NO = 999
REV_AT_EPOCH   = 183
BSTAR          = -.18222E-2
MEAN_MOTION_DOT = -.1461733E-1
MEAN_MOTION_DDOT = .72692E-3

CCSDS_OMM_VERS = 2.0
CREATION_DATE  = 
ORIGINATOR     = 

OBJECT_NAME    = STARLINK-36893
OBJECT_ID      = 2026-044M
CENTER_NAME    = EARTH
REF_FRAME      = TEME
TIME_SYSTEM    = UTC
MEAN_ELEMENT_THEORY = SGP/SGP4

EPOCH          = 2026-03-12T16:00:01.999584
MEAN_MOTION    = 16.07939261
ECCENTRICITY   = .000159
INCLINATION    = 97.2829
RA_OF_ASC_NODE = 31.7276
ARG_OF_PERICENTER = 112.5000
MEAN_ANOMALY   = 260.4326

EPHEMERIS_TYPE = 0
CLASSIFICATION_TYPE = U
NORAD_CAT_ID   = 68112
ELEMENT_SET_NO = 999
REV_AT_EPOCH   = 187
BSTAR          = -.17833E-2
MEAN_MOTION_DOT = -.1440093E-1
MEAN_MOTION_DDOT = .70791E-3

CCSDS_OMM_VERS = 2.0
CREATION_DATE  = 
ORIGINATOR     = 

OBJECT_NAME    = STARLINK-36937
OBJECT_ID      = 2026-044N
CENTER_NAME    = EARTH
REF_FRAME      = TEME
TIME_SYSTEM    = UTC
MEAN_ELEMENT_THEORY = SGP/SGP4

EPOCH          = 2026-03-12T16:00:01.999584
MEAN_MOTION    = 16.08200179
ECCENTRICITY   = .0001004
INCLINATION    = 97.2830
RA_OF_ASC_NODE = 31.7283
ARG_OF_PERICENTER = 103.2596
MEAN_ANOMALY   = 271.4572

EPHEMERIS_TYPE = 0
CLASSIFICATION_TYPE = U
NORAD_CAT_ID   = 68113
ELEMENT_SET_NO = 999
REV_AT_EPOCH   = 183
BSTAR          = -.17754E-2
MEAN_MOTION_DOT = -.1457059E-1
MEAN_MOTION_DDOT = .72597E-3

CCSDS_OMM_VERS = 2.0
CREATION_DATE  = 
ORIGINATOR     = 

OBJECT_NAME    = STARLINK-36229
OBJECT_ID      = 2026-044P
CENTER_NAME    = EARTH
REF_FRAME      = TEME
TIME_SYSTEM    = UTC
MEAN_ELEMENT_THEORY = SGP/SGP4

EPOCH          = 2026-03-12T16:00:01.999584
MEAN_MOTION    = 16.08087169
ECCENTRICITY   = .0000997
INCLINATION    = 97.2825
RA_OF_ASC_NODE = 31.7277
ARG_OF_PERICENTER = 101.5785
MEAN_ANOMALY   = 272.2833

EPHEMERIS_TYPE = 0
CLASSIFICATION_TYPE = U
NORAD_CAT_ID   = 68114
ELEMENT_SET_NO = 999
REV_AT_EPOCH   = 187
BSTAR          = -.17922E-2
MEAN_MOTION_DOT = -.146043E-1
MEAN_MOTION_DDOT = .72804E-3

